OBJECT_NAME,OBJECT_ID,EPOCH,MEAN_MOTION,ECCENTRICITY,INCLINATION,RA_OF_ASC_NODE,ARG_OF_PERICENTER,MEAN_ANOMALY,EPHEMERIS_TYPE,CLASSIFICATION_TYPE,NORAD_CAT_ID,ELEMENT_SET_NO,REV_AT_EPOCH,BSTAR,MEAN_MOTION_DOT,MEAN_MOTION_DDOT
GSAT-7,2013-044B,2026-06-06T20:08:24.876384,1.00270919,.0002967,0.0581,101.2707,190.4269,339.6588,0,U,39234,999,4515,0,-.63E-6,0
AMOS-4,2013-045A,2026-06-06T19:19:36.047712,1.00272843,.0002578,0.0238,88.3330,324.0247,197.7654,0,U,39237,999,4685,0,.21E-6,0
AEHF-3 (USA 246),2013-050A,2026-06-06T18:01:04.972800,1.00269991,.0087816,5.2690,67.2769,188.0796,145.8061,0,U,39256,999,4554,0,.43E-6,0
ASTRA 2E,2013-056A,2026-06-06T20:27:06.345792,1.00273058,.0002646,0.0694,319.6004,124.8761,146.0723,0,U,39285,999,4631,0,.164E-5,0
FM-6,2013-058A,2026-06-06T16:20:27.529152,1.00279606,.0003586,0.0137,48.0496,117.6602,218.1964,0,U,39360,999,4596,0,-.4E-7,0
RADUGA-1M 3,2013-062A,2026-06-06T20:28:58.668384,1.00271632,.0001646,5.9309,72.4835,270.4520,254.5602,0,U,39375,999,4600,0,.166E-5,0
SES-8,2013-071A,2026-06-06T21:08:36.349728,1.00271959,.0002924,0.0132,305.3173,136.5592,225.5792,0,U,39460,999,4432,0,-.256E-5,0
INMARSAT 5-F1,2013-073A,2026-06-06T19:16:27.578208,1.00268783,.0000637,0.0186,358.5957,343.6274,264.7433,0,U,39476,999,4547,0,.42E-6,0
TKSAT-1 (TUPAC KATARI),2013-075A,2026-06-06T19:54:06.756768,1.00272877,.0002699,0.0377,172.6473,254.3403,39.5971,0,U,39481,999,4550,0,-.181E-5,0
EXPRESS-AM5,2013-077A,2026-06-05T22:44:17.411136,1.00269992,.00006637,0.0150,282.3642,75.1222,17.9923,0,U,39487,999,4624,0,-.267E-5,0
GSAT-14,2014-001A,2026-06-06T19:42:21.895200,1.00269293,.0000869,0.0103,337.0057,317.4518,330.3654,0,U,39498,999,4527,0,0,0
THAICOM 6,2014-002A,2026-06-06T20:41:26.476800,1.00270039,.0004597,0.0791,106.9173,355.3354,181.8897,0,U,39500,999,4535,0,-.107E-5,0
TDRS 12,2014-004A,2026-06-06T20:07:20.490240,1.00271011,.0002663,3.9666,18.9102,197.7196,299.5716,0,U,39504,999,4417,0,-.257E-5,0
ABS-2,2014-006A,2026-06-06T20:08:24.922176,1.00271748,.000423,0.0241,63.6102,359.7679,208.9107,0,U,39508,999,4517,0,-.72E-6,0
ATHENA-FIDUS,2014-006B,2026-06-06T20:29:43.596384,1.00270146,.0001525,0.0385,98.7914,349.4163,152.2992,0,U,39509,999,4498,0,.168E-5,0
TURKSAT 4A,2014-007A,2026-06-06T20:30:58.474944,1.00269701,.0001426,0.0578,291.5483,40.0326,273.4380,0,U,39522,999,4486,0,.16E-5,0
EXPRESS-AT1,2014-010A,2026-06-06T20:36:27.950112,1.00301756,.0003867,0.2305,85.7978,33.1621,146.6130,0,U,39612,999,4471,0,.48E-6,0
EXPRESS-AT2,2014-010B,2026-06-06T20:34:58.093248,1.00273452,.0000302,0.0176,304.3233,77.1885,238.5023,0,U,39613,999,4439,0,.92E-6,0
AMAZONAS 4A,2014-011A,2026-06-06T19:57:51.400224,1.00274110,.0003871,0.0671,206.8243,256.4653,17.4063,0,U,39616,999,4461,0,-.239E-5,0
ASTRA 5B,2014-011B,2026-06-06T20:46:37.338816,1.00269535,.0002199,0.0586,315.7738,107.3141,167.3575,0,U,39617,999,4456,0,.151E-5,0
IRNSS-1B,2014-017A,2026-05-19T20:39:38.653920,1.00280229,.00242269,28.9733,240.8911,185.2284,176.5740,0,U,39635,999,4451,0,.103E-5,0
LUCH-5V,2014-023A,2026-06-06T20:27:21.665376,1.00268278,.0002825,5.1075,69.8532,28.9558,198.0024,0,U,39727,999,4425,0,-.254E-5,0
KAZSAT-3,2014-023B,2026-06-06T19:14:48.077376,1.00274169,.0000337,0.0256,49.1029,332.3779,220.9303,0,U,39728,999,4235,0,.74E-6,0
EUTELSAT 3B,2014-030A,2026-06-06T21:18:51.173856,1.00272428,.000408,0.0607,352.2842,85.1000,140.7302,0,U,39773,999,4396,0,.34E-6,0
ASIASAT 8 (AMOS-7),2014-046A,2026-06-06T20:08:38.467104,1.00272371,.0001595,0.0153,292.3112,140.3884,230.0420,0,U,40107,999,10204,0,-.319E-5,0
ASIASAT 6,2014-052A,2026-06-05T17:30:31.802400,1.00269615,.000102,0.0184,310.8041,141.3753,184.5165,0,U,40141,999,4296,0,-.349E-5,0
OPTUS 10,2014-054A,2026-06-06T19:20:47.452128,1.00272579,.0002136,0.1190,340.9507,92.5185,267.9502,0,U,40146,999,4292,0,-.133E-5,0
MEASAT-3B,2014-054B,2026-06-06T20:45:06.968736,1.00273165,.000319,0.0429,41.4499,23.3727,233.2206,0,U,40147,999,4280,0,-.228E-5,0
HIMAWARI-8,2014-060A,2026-06-06T20:59:05.630208,1.00271419,.0000891,0.0184,48.4433,48.2708,254.0222,0,U,40267,999,4265,0,-.262E-5,0
IRNSS-1C,2014-061A,2026-06-06T20:26:22.775136,1.00270962,.0022605,6.4923,89.1238,1.2769,194.4828,0,U,40269,999,4258,0,-.148E-5,0
INTELSAT 30 (IS-30),2014-062A,2026-06-06T13:01:11.707104,1.00267497,.0001071,0.0228,41.3899,353.6432,320.1484,0,U,40271,999,668,0,-.137E-5,0
ARSAT 1,2014-062B,2026-06-06T19:58:28.839072,1.00270771,.0001899,0.0415,63.8868,12.1322,47.0534,0,U,40272,999,4252,0,-.246E-5,0
