GSAT-7                  
1 39234U 13044B   26157.83917681 -.00000063  00000+0  00000+0 0  9995
2 39234   0.0581 101.2707 0002967 190.4269 339.6588  1.00270919 45156
AMOS-4                  
1 39237U 13045A   26157.80527833  .00000021  00000+0  00000+0 0  9995
2 39237   0.0238  88.3330 0002578 324.0247 197.7654  1.00272843 46857
AEHF-3 (USA 246)        
1 39256U 13050A   26157.75075200  .00000043  00000+0  00000+0 0  9996
2 39256   5.2690  67.2769 0087816 188.0796 145.8061  1.00269991 45545
ASTRA 2E                
1 39285U 13056A   26157.85215678  .00000164  00000+0  00000+0 0  9994
2 39285   0.0694 319.6004 0002646 124.8761 146.0723  1.00273058 46311
FM-6                    
1 39360U 13058A   26157.68087418 -.00000004  00000+0  00000+0 0  9994
2 39360   0.0137  48.0496 0003586 117.6602 218.1964  1.00279606 45966
RADUGA-1M 3             
1 39375U 13062A   26157.85345681  .00000166  00000+0  00000+0 0  9991
2 39375   5.9309  72.4835 0001646 270.4520 254.5602  1.00271632 46007
SES-8                   
1 39460U 13071A   26157.88097627 -.00000256  00000+0  00000+0 0  9994
2 39460   0.0132 305.3173 0002924 136.5592 225.5792  1.00271959 44329
INMARSAT 5-F1           
1 39476U 13073A   26157.80309697  .00000042  00000+0  00000+0 0  9990
2 39476   0.0186 358.5957 0000637 343.6274 264.7433  1.00268783 45477
TKSAT-1 (TUPAC KATARI)  
1 39481U 13075A   26157.82924487 -.00000181  00000+0  00000+0 0  9995
2 39481   0.0377 172.6473 0002699 254.3403  39.5971  1.00272877 45503
EXPRESS-AM5             
1 39487U 13077A   26156.94742374 -.00000267  00000+0  00000+0 0  9993
2 39487   0.0150 282.3642 0000663  75.1222  17.9923  1.00269992 46245
GSAT-14                 
1 39498U 14001A   26157.82108675  .00000000  00000+0  00000+0 0  9995
2 39498   0.0103 337.0057 0000869 317.4518 330.3654  1.00269293 45270
THAICOM 6               
1 39500U 14002A   26157.86211200 -.00000107  00000+0  00000+0 0  9992
2 39500   0.0791 106.9173 0004597 355.3354 181.8897  1.00270039 45357
TDRS 12                 
1 39504U 14004A   26157.83843160 -.00000257  00000+0  00000+0 0  9997
2 39504   3.9666  18.9102 0002663 197.7196 299.5716  1.00271011 44179
ABS-2                   
1 39508U 14006A   26157.83917734 -.00000072  00000+0  00000+0 0  9997
2 39508   0.0241  63.6102 0004230 359.7679 208.9107  1.00271748 45171
ATHENA-FIDUS            
1 39509U 14006B   26157.85397681  .00000168  00000+0  00000+0 0  9998
2 39509   0.0385  98.7914 0001525 349.4163 152.2992  1.00270146 44981
TURKSAT 4A              
1 39522U 14007A   26157.85484346  .00000160  00000+0  00000+0 0  9991
2 39522   0.0578 291.5483 0001426  40.0326 273.4380  1.00269701 44868
EXPRESS-AT1             
1 39612U 14010A   26157.85865683  .00000048  00000+0  00000+0 0  9997
2 39612   0.2305  85.7978 0003867  33.1621 146.6130  1.00301756 44717
EXPRESS-AT2             
1 39613U 14010B   26157.85761682  .00000092  00000+0  00000+0 0  9991
2 39613   0.0176 304.3233 0000302  77.1885 238.5023  1.00273452 44394
AMAZONAS 4A             
1 39616U 14011A   26157.83184491 -.00000239  00000+0  00000+0 0  9994
2 39616   0.0671 206.8243 0003871 256.4653  17.4063  1.00274110 44618
ASTRA 5B                
1 39617U 14011B   26157.86570994  .00000151  00000+0  00000+0 0  9997
2 39617   0.0586 315.7738 0002199 107.3141 167.3575  1.00269535 44563
IRNSS-1B                
1 39635U 14017A   26139.86086405  .00000103  00000+0  00000+0 0  9999
2 39635  28.9733 240.8911 0024226 185.2284 176.5740  1.00280229 44519
LUCH-5V                 
1 39727U 14023A   26157.85233409 -.00000254  00000+0  00000+0 0  9993
2 39727   5.1075  69.8532 0002825  28.9558 198.0024  1.00268278 44258
KAZSAT-3                
1 39728U 14023B   26157.80194534  .00000074  00000+0  00000+0 0  9993
2 39728   0.0256  49.1029 0000337 332.3779 220.9303  1.00274169 42359
EUTELSAT 3B             
1 39773U 14030A   26157.88809229  .00000034  00000+0  00000+0 0  9999
2 39773   0.0607 352.2842 0004080  85.1000 140.7302  1.00272428 43961
ASIASAT 8 (AMOS-7)      
1 40107U 14046A   26157.83933411 -.00000319  00000+0  00000+0 0  9992
2 40107   0.0153 292.3112 0001595 140.3884 230.0420  1.00272371102042
ASIASAT 6               
1 40141U 14052A   26156.72953475 -.00000349  00000+0  00000+0 0  9999
2 40141   0.0184 310.8041 0001020 141.3753 184.5165  1.00269615 42960
OPTUS 10                
1 40146U 14054A   26157.80610477 -.00000133  00000+0  00000+0 0  9999
2 40146   0.1190 340.9507 0002136  92.5185 267.9502  1.00272579 42929
MEASAT-3B               
1 40147U 14054B   26157.86466399 -.00000228  00000+0  00000+0 0  9993
2 40147   0.0429  41.4499 0003190  23.3727 233.2206  1.00273165 42808
HIMAWARI-8              
1 40267U 14060A   26157.87437072 -.00000262  00000+0  00000+0 0  9998
2 40267   0.0184  48.4433 0000891  48.2708 254.0222  1.00271419 42656
IRNSS-1C                
1 40269U 14061A   26157.85165249 -.00000148  00000+0  00000+0 0  9996
2 40269   6.4923  89.1238 0022605   1.2769 194.4828  1.00270962 42580
INTELSAT 30 (IS-30)     
1 40271U 14062A   26157.54249661 -.00000137  00000+0  00000+0 0  9995
2 40271   0.0228  41.3899 0001071 353.6432 320.1484  1.00267497  6685
ARSAT 1                 
1 40272U 14062B   26157.83227823 -.00000246  00000+0  00000+0 0  9995
2 40272   0.0415  63.8868 0001899  12.1322  47.0534  1.00270771 42525
